#aV2015 12 27  0  0  0.00000000     288 DD+AD WGS84 FIT  NGA
## 1877      0.00000000   300.00000000 57383 0.0000000000000
+   31     1  2  3  5  6  7  8  9 10 11 12 13 14 15 16 17 18
+         19 20 21 22 23 24 25 26 27 28 29 30 31 32  0  0  0
+          0  0  0  0  0  0  0  0  0  0  0  0  0  0  0  0  0
+          0  0  0  0  0  0  0  0  0  0  0  0  0  0  0  0  0
+          0  0  0  0  0  0  0  0  0  0  0  0  0  0  0  0  0
++         2  2  2  2  2  2  2  2  2  2  2  2  2  2  2  2  2
++         2  2  2  2  2  2  2  2  2  2  2  2  2  2  0  0  0
++         0  0  0  0  0  0  0  0  0  0  0  0  0  0  0  0  0
++         0  0  0  0  0  0  0  0  0  0  0  0  0  0  0  0  0
++         0  0  0  0  0  0  0  0  0  0  0  0  0  0  0  0  0
%c cc cc ccc ccc cccc cccc cccc cccc ccccc ccccc ccccc ccccc
%c cc cc ccc ccc cccc cccc cccc cccc ccccc ccccc ccccc ccccc
%f  0.0000000  0.000000000  0.00000000000  0.000000000000000
%f  0.0000000  0.000000000  0.00000000000  0.000000000000000
%i    0    0    0    0      0      0      0      0         0
%i    0    0    0    0      0      0      0      0         0
/*      NGA, ST. LOUIS,MO.                                  
/*   EPHEMERIS COMPUTED FROM 2 DAYS OF DATA                 
/*   EPOCHA v2.4 SMOOTHER                                   
/*   G1762 IERS2010 SATAF SATAPC                            
*  2015 12 27 12 15  0.00000000
P  1  21735.020018  14064.378406  -6486.649290      7.649623                    
V  1  -8395.757968   -912.452254 -30254.980256      0.009298                    
P  2  -1625.916427 -16855.452049  20950.341689    598.498184                    
V  2  24279.368075   8356.417291   8351.142654      0.005209                    
P  3  12623.533374  18374.064177  14427.151763     -3.465548                    
V  3    230.206496  18460.871899 -23722.308448     -0.051680                    
P  5  -1827.581118 -26257.571683   2578.086676   -161.071101                    
V  5   3885.003072   2868.348402  31318.645209      0.036203                    
P  6  12945.969212 -10285.423401  20785.312906    119.172807                    
V  6  24074.339431  10823.705516  -9648.593428      0.063588                    
P  7  24917.692106   4719.949837  -8403.108524    475.957358                    
V  7   8958.223125   6270.862034  29248.112984     -0.013353                    
P  8   5662.596610  14530.984672 -21444.327863    -17.766236                    
V  8 -21913.160930  16382.029392   5302.642417     -0.014454                    
P  9  22092.274038  -4644.395776  13984.346492     37.361950                    
V  9 -12663.794589  12703.733940  24186.661512      0.080002                    
P 10 -11764.732872  13945.203431 -19280.910004     47.095960                    
V 10  -4628.296941 -24112.387250 -14654.345855      0.030477                    
P 11  19112.118623  12201.798010 -14431.171545   -624.028743                    
V 11 -17698.266785   2731.089103 -21911.925321     -0.020766                    
P 12 -10013.777798 -21180.861569  12610.329928    356.494954                    
V 12    133.394680 -16121.664945 -26534.437505      0.028659                    
P 13   4217.541071 -17907.509468 -19327.721233   -174.291646                    
V 13  21288.475503 -11533.315896  15347.669617     -0.026421                    
P 14 -21844.427949  14952.363464    865.607597     12.896747                    
V 14  -2206.421560  -1913.395780 -31922.782383     -0.023535                    
P 15  -9759.673023 -12559.864119 -21379.887507   -289.265523                    
V 15  20674.886676 -17369.285815   1114.407452     -0.018998                    
P 16   -319.523337  26175.522547   2953.115271    -53.642624                    
V 16  -2414.015891  -3738.360887  32364.140612      0.033869                    
P 17  21626.295556 -15220.224762    178.300206   -197.567021                    
V 17   1325.874188   2181.139062 -32205.094637     -0.008673                    
P 18 -15754.339335   1100.791023 -20851.638351    466.929134                    
V 18  -4283.612905 -27484.263791   1470.930334      0.038736                    
P 19  23960.329428 -11086.342581  -4872.665284   -524.056561                    
V 19  -3866.968392   4781.756148 -30929.940603     -0.002473                    
P 20 -13348.603181 -19700.875621 -11889.961198    381.388058                    
V 20     67.011862 -15309.199027  25701.682489      0.027650                    
P 21 -24201.387254  -1087.593642 -10503.104196   -501.891244                    
V 21 -12257.877917  -8087.785795  26920.935411     -0.021555                    
P 22  -8687.026132  19605.270300 -15372.024742    417.339026                    
V 22  -6017.193122 -19375.318270 -21164.965125     -0.031859                    
P 23  15908.983688   6441.046442  20541.535371   -151.867610                    
V 23 -19874.061702  16229.136610   9957.572724     -0.019703                    
P 24 -20129.415560 -14888.549491  -9175.340605     -9.862897                    
V 24  11731.724592   1718.012738 -28473.074375     -0.005281                    
P 25 -14857.842944  -8512.751083  20251.898767    -89.582074                    
V 25  -2534.934092 -25728.817574 -12438.171097     -0.062014                    
P 26  -5867.648864  22573.682494  12686.970665   -184.330970                    
V 26  -4485.186198 -15648.691926  25806.281967     -0.171664                    
P 27  -5138.169093  19194.356625 -17579.332264     48.016337                    
V 27 -18621.277093  12383.947439  19120.167689      0.033797                    
P 28  11950.444182 -12889.035081 -19257.478531    491.173010                    
V 28   2549.178663  25689.439613 -15179.962337      0.026895                    
P 29 -21019.754854   1086.249049  16192.994671    649.749805                    
V 29  16035.807495 -12890.302449  21738.648144      0.012753                    
P 30  20025.613919  -3563.047168 -17123.391861     76.553728                    
V 30  18626.787298  11333.344149  19348.804471      0.050319                    
P 31 -11834.269211  10652.630169  21437.278744    289.566436                    
V 31 -24275.890803 -11439.815380  -7411.559410     -0.015648                    
P 32   5150.097620  25792.631546   5305.691492     61.192132                    
V 32  -2392.315184   6874.942932 -30132.786810      0.122159                    
EOF
